C/2017 S2 (PANSTARRS),e,12.6736,62.3701,306.0139,20.58554,0.0105526,0.82455797,15.4469,09/02.0/2021,2000,g 13.0,4.0
# From MPC114599
C/2017 S3 (PANSTARRS),h,08/16.1925/2018,99.1917,171.2822,255.8258,1.000062,0.207325,2000,11.0,4.0
# From MPEC 2021-P79
P/2017 S5 (ATLAS),e,11.8531,252.3645,99.9290,3.167151,0.1748642,0.31435386,261.4923,09/02.0/2021,2000,g 14.0,4.0
# From MPC109591
C/2017 S6 (Catalina),h,02/26.2196/2018,152.8673,131.0450,134.8677,1.000707,1.546831,2000,12.5,4.0
# From MPC114599
C/2017 S7 (Lemmon),e,124.2262,262.7610,187.5391,15045,0.0000005,0.99949443,0.0000,05/24.4014/2017,2000,g  7.0,4.0
# From MPC114599
P/2017 S8 (PANSTARRS),e,29.8381,191.5508,254.7626,2.781043,0.2125164,0.39148141,279.4246,09/02.0/2021,2000,g 16.0,4.0
# From MPC107050
P/2017 S9 (PANSTARRS),e,14.1439,146.2236,237.6946,3.153683,0.1759856,0.30532604,264.3257,09/02.0/2021,2000,g 17.0,4.0
# From MPC114600
C/2017 T1 (Heinze),e,96.8590,102.3806,96.9751,13593,0.0000006,0.99995703,0.0000,02/20.9494/2018,2000,g 14.5,4.0
# From MPEC 2021-P47
C/2017 T2 (PANSTARRS),e,57.2273,64.3778,92.9963,2374,0.0000085,0.99931959,0.0000,05/04.8848/2020,2000,g  5.0,4.0
# From MPC114600
C/2017 T3 (ATLAS),e,88.1238,230.1276,246.8285,1175,0.0000245,0.99929778,0.0000,07/18.8406/2018,2000,g 10.0,4.0
# From MPC115882
P/2017 TW13 (Lemmon),e,44.8502,322.2990,119.9538,7.140537,0.0516545,0.70960404,60.3858,09/02.0/2021,2000,g 15.0,2.0
# From MPC114600
C/2017 U2 (Fuls),e,95.3861,149.7058,147.8266,2902,0.0000063,0.99768771,0.0000,08/28.1790/2017,2000,g  9.0,4.0
# From MPC114600
P/2017 U3 (PANSTARRS),e,15.9183,165.1099,296.6784,4.928460,0.0900818,0.09893023,78.4808,09/02.0/2021,2000,g 11.0,4.0
# From MPEC 2021-P47
C/2017 U4 (PANSTARRS),h,09/22.8753/2018,158.2116,245.9353,159.0027,1.001605,7.720507,2000,7.0,4.0
# From MPC114600
C/2017 U5 (PANSTARRS),e,18.9775,163.0859,262.0028,16.87878,0.0142132,0.74415173,19.2359,09/02.0/2021,2000,g 12.0,4.0
# From MPEC 2021-P47
C/2017 U7 (PANSTARRS),h,09/14.2675/2019,142.5923,276.2453,326.3309,1.000491,6.424170,2000,8.3,2.0
# From MPC114600
C/2017 W2 (Leonard),e,98.1992,312.8408,168.9824,13.64328,0.0195581,0.71050006,27.4015,09/02.0/2021,2000,g 11.0,4.0
# From MPC114601
P/2017 W3 (Gibbs),e,18.1668,210.2621,327.8442,7.840644,0.0448928,0.50701190,57.5327,09/02.0/2021,2000,g 10.5,4.0
# From MPC115883
C/2017 X1 (PANSTARRS),e,31.3099,251.1325,283.2664,31.22645,0.0056483,0.85046915,6.6375,09/02.0/2021,2000,g 10.0,4.0
# From MPC117069
C/2017 Y1 (PANSTARRS),e,55.2649,307.5265,134.2737,1755,0.0000134,0.99788735,0.0000,08/31.2651/2017,2000,g 11.5,4.0
# From MPEC 2021-P47
C/2017 Y2 (PANSTARRS),h,11/04.8375/2020,128.4136,65.9944,147.9053,1.000756,4.632474,2000,15.0,4.0
# From MPC111770
P/2017 Y3 (Leonard),e,27.5567,153.8413,67.6128,9.840994,0.0319261,0.86991724,41.4964,09/02.0/2021,2000,g 16.5,4.0
# From MPC114601
C/2018 A1 (PANSTARRS),e,53.6149,336.6609,96.2276,25.09524,0.0078400,0.90388780,11.0725,09/02.0/2021,2000,g 12.5,4.0
# From MPEC 2021-P47
C/2018 A3 (ATLAS),e,139.5378,194.2931,86.3731,433.5301,0.0001092,0.99244435,0.0000,01/12.3073/2019,2000,g  8.5,4.0
# From MPC114601
C/2018 A4 (PANSTARRS),e,3.1487,97.6194,356.0033,12.19201,0.0231521,0.80337706,27.8395,09/02.0/2021,2000,g 14.0,4.0
# From MPC109147
P/2018 A5 (PANSTARRS),e,23.5860,87.8151,359.5308,5.632924,0.0737230,0.52247926,106.1596,09/02.0/2021,2000,g 15.0,4.0
# From MPEC 2021-P47
C/2018 A6 (Gibbs),e,77.0430,340.3784,264.4919,15.21325,0.0166101,0.80157571,12.9808,09/02.0/2021,2000,g  9.0,4.0
# From MPC118841
C/2018 B1 (Lemmon),h,03/28.9950/2018,162.4199,133.1910,68.3218,1.000154,5.118879,2000,9.0,4.0
# From MPC114601
P/2018 C1 (Lemmon-Read),e,5.1169,270.3671,235.7101,5.654238,0.0733066,0.53249691,94.2034,09/02.0/2021,2000,g 13.5,4.0
# From MPC114601
C/2018 C2 (Lemmon),h,06/01.3553/2018,34.4609,91.1649,134.1053,1.000541,1.959505,2000,13.0,4.0
# From MPEC 2021-P47
C/2018 DO4 (Lemmon),e,160.4607,251.3180,176.2140,25.58235,0.0076172,0.90574480,5.6835,09/02.0/2021,2000,g 11.0,4.0
# From MPC114602
C/2018 E1 (ATLAS),e,72.5174,146.8691,299.3577,53.88865,0.0024915,0.94990887,3.0733,09/02.0/2021,2000,g 10.5,4.0
# From MPC114602
C/2018 E2 (Barros),e,97.6840,67.1856,277.4557,3962,0.0000040,0.99901076,0.0000,12/24.0360/2017,2000,g 10.5,4.0
# From MPC114602
C/2018 EN4 (NEOWISE),e,81.7696,136.1338,35.0429,18.16854,0.0127269,0.91996927,15.0674,09/02.0/2021,2000,g 15.0,4.0
# From MPC114602
C/2018 EF9 (Lemmon),e,84.6234,172.5573,72.6207,516.8933,0.0000839,0.99698487,0.0000,05/22.4609/2018,2000,g 18.0,2.0
# From MPC115883
C/2018 F1 (Grauer),e,46.0774,177.2758,71.6252,270.7312,0.0002213,0.98893726,0.0000,12/13.4083/2018,2000,g 11.5,4.0
# From MPC110084
C/2018 F3 (Johnson),p,08/15.2314/2017,105.5348,293.0113,2.483172,173.0311,2000,13.0,4.0
# From MPEC 2021-P47
C/2018 F4 (PANSTARRS),h,12/04.0605/2019,78.0889,26.5152,263.2312,1.001060,3.441029,2000,11.0,6.0
# From MPC114602
P/2018 H2 (PANSTARRS),e,7.3898,68.3404,119.9469,4.390049,0.1071519,0.54042329,141.3205,09/02.0/2021,2000,g 16.6,2.0
# From MPC114602
C/2018 K1 (Weiland),e,164.1946,260.0741,325.1387,30.05971,0.0059804,0.93735719,7.4399,09/02.0/2021,2000,g 14.9,4.0
# From MPEC 2021-P47
C/2018 KJ3 (Lemmon),e,136.7041,91.6119,217.6842,908.3142,0.0000360,0.99600411,0.0000,09/09.8349/2019,2000,g 12.2,2.0
# From MPC114602
P/2018 L1 (PANSTARRS),e,10.5895,268.6318,18.0092,3.651663,0.1412434,0.48263573,144.6969,09/02.0/2021,2000,g 15.0,4.0
# From MPEC 2021-P47
C/2018 L2 (ATLAS),e,67.3552,243.0210,56.2890,261.7634,0.0002327,0.99345426,0.0000,12/02.6815/2018,2000,g 10.0,4.0
# From MPC114603
P/2018 L4 (PANSTARRS),e,26.6257,145.1508,140.5966,4.942242,0.0897053,0.65993649,101.2085,09/02.0/2021,2000,g 17.5,4.0
# From MPC119996
P/2018 L5 (Leonard),e,2.2081,219.0997,93.8612,3.628155,0.1426183,0.36471407,173.3742,09/02.0/2021,2000,g 14.5,4.0
# From MPC117070
C/2018 M1 (Catalina),e,37.3013,339.4090,14.1821,21.39858,0.0099570,0.93912808,11.4455,09/02.0/2021,2000,g 15.5,4.0
# From MPC112393
C/2018 N1 (NEOWISE),e,159.4400,292.4589,354.6634,364.6678,0.0001415,0.99640566,0.0000,08/02.0584/2018,2000,g 15.5,4.0
# From MPEC 2021-P47
C/2018 N2 (ASASSN),h,11/11.0027/2019,77.5338,25.2309,24.4145,1.000218,3.125092,2000,6.0,4.0
# From MPC114603
C/2018 O1 (ATLAS),e,154.0323,87.6747,162.6284,27.98449,0.0066578,0.94422138,7.3054,09/02.0/2021,2000,g 17.0,4.0
# From MPC114603
P/2018 P3 (PANSTARRS),e,8.9104,59.1715,305.8963,3.005664,0.1891443,0.41674385,200.0822,09/02.0/2021,2000,g 14.5,4.0
# From MPC114603
P/2018 P4 (PANSTARRS),e,23.1089,353.0650,8.2735,6.675364,0.0571468,0.45059434,58.7862,09/02.0/2021,2000,g 12.0,4.0
# From MPEC 2021-P47
C/2018 P5 (PANSTARRS),e,7.2508,216.2318,131.7825,12.81454,0.0214857,0.64266512,19.7151,09/02.0/2021,2000,g 11.0,4.0
# From MPC118841
C/2018 R3 (Lemmon),e,69.7302,324.6434,112.8003,1592,0.0000155,0.99919115,0.0000,06/07.3195/2019,2000,g  9.5,4.0
# From MPC112393
C/2018 R4 (Fuls),e,11.6820,298.4507,345.3084,335.6736,0.0001603,0.99488680,0.0000,03/03.5006/2018,2000,g 14.0,4.0
# From MPC114603
C/2018 R5 (Lemmon),e,103.7489,171.1182,178.0798,22.79831,0.0090542,0.84099757,8.7461,09/02.0/2021,2000,g 11.5,4.0
# From MPEC 2021-P47
C/2018 U1 (Lemmon),h,11/03.0373/2021,108.2970,75.4804,180.4587,1.001333,4.992979,2000,5.0,4.0
# From MPC114604
C/2018 V1 (Machholz-Fujikawa-Iwamoto),h,12/03.1055/2018,144.0560,128.8876,88.8748,1.000331,0.387144,2000,12.0,4.0
# From MPC115884
C/2018 V2 (ATLAS),e,159.1678,357.0844,318.9424,25.06247,0.0078554,0.90111792,7.9416,09/02.0/2021,2000,g 15.0,4.0
# From MPC114604
P/2018 VN2 (Leonard),e,18.2523,226.4923,138.7644,4.064358,0.1202863,0.47869965,142.4110,09/02.0/2021,2000,g 15.0,4.0
# From MPEC 2021-P47
A/2018 V3,e,164.9777,308.6577,3.5478,123.4989,0.0007181,0.98914053,0.0000,09/08.7131/2019,2000,g 15.7,2.0
# From MPC114604
C/2018 V4 (Africano),e,69.0060,78.3481,359.9285,204.0986,0.0003380,0.98434020,0.0000,03/01.3691/2019,2000,g 12.5,4.0
# From MPEC 2021-P47
P/2018 V5 (Trujillo-Sheppard),e,10.5874,171.2869,260.6659,8.954165,0.0367846,0.47480584,39.1844,09/02.0/2021,2000,g 12.5,4.0
# From MPEC 2021-P47
C/2018 W1 (Catalina),e,83.2909,233.6057,251.2424,21.68352,0.0097613,0.93725026,8.2419,09/02.0/2021,2000,g 15.5,2.0
# From MPEC 2021-P47
C/2018 W2 (Africano),h,09/05.5592/2019,116.6207,181.8341,157.9837,1.000389,1.455972,2000,9.5,4.0
# From MPC119996
C/2018 X2 (Fitzsimmons),e,23.0692,340.8322,162.0313,144.5304,0.0005672,0.98528974,0.0000,07/08.2898/2019,2000,g 12.0,4.0
# From MPC114604
C/2018 X3 (PANSTARRS),e,43.3767,78.8900,359.7375,12.37101,0.0226515,0.78216715,22.1173,09/02.0/2021,2000,g 14.5,4.0
# From MPC118842
C/2018 Y1 (Iwamoto),e,160.3985,147.5153,357.9968,138.1639,0.0006069,0.99070490,0.0000,02/06.8931/2019,2000,g 11.5,4.0
# From MPC114605
P/2018 Y2 (Africano),e,11.6825,297.2593,162.3038,7.458405,0.0483877,0.47863649,47.1541,09/02.0/2021,2000,g 11.5,4.0
# From MPC114605
P/2019 A1 (PANSTARRS),e,13.7443,312.3016,150.7534,5.120894,0.0850522,0.56837810,89.9382,09/02.0/2021,2000,g 16.0,4.0
# From MPEC 2021-P47
P/2019 A2 (ATLAS),e,14.8600,139.4718,323.9782,5.719812,0.0720496,0.38138771,73.2596,09/02.0/2021,2000,g 10.5,4.0
# From MPEC 2021-P47
P/2019 A3 (PANSTARRS),e,15.3705,31.2941,325.5229,3.146378,0.1765988,0.26579471,198.8967,09/02.0/2021,2000,g 16.0,4.0
# From MPC114605
P/2019 A4 (PANSTARRS),e,13.3134,119.2931,342.0017,2.616387,0.2328901,0.08757074,233.4142,09/02.0/2021,2000,g 15.0,4.0
# From MPEC 2021-P47
C/2019 A5 (PANSTARRS),e,67.5600,146.6287,355.9276,21.55535,0.0098485,0.70674253,8.0457,09/02.0/2021,2000,g  9.5,4.0
# From MPC114605
P/2019 A6 (Lemmon-PANSTARRS),e,33.2347,280.2557,156.1875,5.360856,0.0794059,0.63914670,87.3315,09/02.0/2021,2000,g 16.0,4.0
# From MPEC 2021-P78
P/2019 A7 (PANSTARRS),e,17.7747,280.5222,119.2105,3.185639,0.1733442,0.16122803,231.2961,09/02.0/2021,2000,g 13.5,4.0
# From MPC115884
P/2019 A8 (PANSTARRS),e,3.0348,125.9735,42.0153,3.653684,0.1411262,0.43055175,133.1432,09/02.0/2021,2000,g 16.0,4.0
# From MPC118842
